[{"OBJECT_NAME":"STARLINK-1506","OBJECT_ID":"2020-038T","EPOCH":"2026-03-09T15:50:48.887520","MEAN_MOTION":15.26134655,"ECCENTRICITY":0.00025141,"INCLINATION":53.0733,"RA_OF_ASC_NODE":202.5028,"ARG_OF_PERICENTER":227.7836,"MEAN_ANOMALY":132.2949,"EPHEMERIS_TYPE":0,"CLASSIFICATION_TYPE":"U","NORAD_CAT_ID":45747,"ELEMENT_SET_NO":999,"REV_AT_EPOCH":31668,"BSTAR":0.0009799682,"MEAN_MOTION_DOT":0.0002538,"MEAN_MOTION_DDOT":0},{"OBJECT_NAME":"STARLINK-32536","OBJECT_ID":"2024-207P","EPOCH":"2026-03-09T22:25:28.688448","MEAN_MOTION":15.2762972,"ECCENTRICITY":0.00019239,"INCLINATION":43.0003,"RA_OF_ASC_NODE":284.3214,"ARG_OF_PERICENTER":274.1329,"MEAN_ANOMALY":85.9303,"EPHEMERIS_TYPE":0,"CLASSIFICATION_TYPE":"U","NORAD_CAT_ID":61925,"ELEMENT_SET_NO":999,"REV_AT_EPOCH":7471,"BSTAR":0.0010205219,"MEAN_MOTION_DOT":0.0002797,"MEAN_MOTION_DDOT":0}]
